ASTROCAST 0.1           
1 43798U 18099AS  26193.75482554  .00031183  00000+0  53084-3 0  9997
2 43798  97.4387 273.0795 0005730 140.8651 219.3017 15.51333494418390
ASTROCAST-0402          
1 55109U 23001DE  26193.24286416  .00005345  00000+0  19270-3 0  9998
2 55109  97.5582 286.8225 0006205 142.1809 217.9868 15.28968263148362
ASTROCAST-0401          
1 55110U 23001DF  26193.78121205  .00011141  00000+0  40373-3 0  9992
2 55110  97.5573 287.1767 0009542 115.1547 245.0683 15.28501473195113
ASTROCAST-0403          
1 55111U 23001DG  26193.73854779  .00015999  00000+0  51516-3 0  9993
2 55111  97.5626 288.4376 0004534 221.2661 138.8238 15.32286668148478
ASTROCAST-0404          
1 55112U 23001DH  26193.79978017  .00005388  00000+0  19523-3 0  9995
2 55112  97.5672 288.3190 0004989 254.0077 106.0613 15.28802425148443
