{"fetched_at":"2026-07-13T07:48:07.061Z","source":"https://celestrak.org/NORAD/elements/gp.php?NAME=ASTROCAST&FORMAT=JSON","constellation":"astrocast","records":[{"OBJECT_NAME":"ASTROCAST 0.1","OBJECT_ID":"2018-099AS","EPOCH":"2026-07-12T18:06:56.926656","CLASSIFICATION_TYPE":"U","MEAN_MOTION":15.51333494,"ECCENTRICITY":0.000573,"INCLINATION":97.4387,"RA_OF_ASC_NODE":273.0795,"ARG_OF_PERICENTER":140.8651,"MEAN_ANOMALY":219.3017,"EPHEMERIS_TYPE":0,"NORAD_CAT_ID":43798,"ELEMENT_SET_NO":999,"REV_AT_EPOCH":41839,"BSTAR":0.00053084,"MEAN_MOTION_DOT":0.00031183,"MEAN_MOTION_DDOT":0},{"OBJECT_NAME":"ASTROCAST-0402","OBJECT_ID":"2023-001DE","EPOCH":"2026-07-12T05:49:43.463424","CLASSIFICATION_TYPE":"U","MEAN_MOTION":15.28968263,"ECCENTRICITY":0.0006205,"INCLINATION":97.5582,"RA_OF_ASC_NODE":286.8225,"ARG_OF_PERICENTER":142.1809,"MEAN_ANOMALY":217.9868,"EPHEMERIS_TYPE":0,"NORAD_CAT_ID":55109,"ELEMENT_SET_NO":999,"REV_AT_EPOCH":14836,"BSTAR":0.0001927,"MEAN_MOTION_DOT":0.00005345,"MEAN_MOTION_DDOT":0},{"OBJECT_NAME":"ASTROCAST-0401","OBJECT_ID":"2023-001DF","EPOCH":"2026-07-12T18:44:56.721120","CLASSIFICATION_TYPE":"U","MEAN_MOTION":15.28501473,"ECCENTRICITY":0.0009542,"INCLINATION":97.5573,"RA_OF_ASC_NODE":287.1767,"ARG_OF_PERICENTER":115.1547,"MEAN_ANOMALY":245.0683,"EPHEMERIS_TYPE":0,"NORAD_CAT_ID":55110,"ELEMENT_SET_NO":999,"REV_AT_EPOCH":19511,"BSTAR":0.00040373,"MEAN_MOTION_DOT":0.00011141,"MEAN_MOTION_DDOT":0},{"OBJECT_NAME":"ASTROCAST-0403","OBJECT_ID":"2023-001DG","EPOCH":"2026-07-12T17:43:30.529056","CLASSIFICATION_TYPE":"U","MEAN_MOTION":15.32286668,"ECCENTRICITY":0.0004534,"INCLINATION":97.5626,"RA_OF_ASC_NODE":288.4376,"ARG_OF_PERICENTER":221.2661,"MEAN_ANOMALY":138.8238,"EPHEMERIS_TYPE":0,"NORAD_CAT_ID":55111,"ELEMENT_SET_NO":999,"REV_AT_EPOCH":14847,"BSTAR":0.00051516,"MEAN_MOTION_DOT":0.00015999,"MEAN_MOTION_DDOT":0},{"OBJECT_NAME":"ASTROCAST-0404","OBJECT_ID":"2023-001DH","EPOCH":"2026-07-12T19:11:41.006688","CLASSIFICATION_TYPE":"U","MEAN_MOTION":15.28802425,"ECCENTRICITY":0.0004989,"INCLINATION":97.5672,"RA_OF_ASC_NODE":288.319,"ARG_OF_PERICENTER":254.0077,"MEAN_ANOMALY":106.0613,"EPHEMERIS_TYPE":0,"NORAD_CAT_ID":55112,"ELEMENT_SET_NO":999,"REV_AT_EPOCH":14844,"BSTAR":0.00019523,"MEAN_MOTION_DOT":0.00005388,"MEAN_MOTION_DDOT":0}]}
